{
"type": "FeatureCollection",
"name": "columbia_basin_32611",
"crs": { "type": "name", "properties": { "name": "urn:ogc:def:crs:EPSG::32611" } },
"features": [
{ "type": "Feature", "properties": { }, "geometry": { "type": "Polygon", "coordinates": [ [ [ -121316.999176806421019, 4677069.07630961574614 ], [ 582818.069248398416676, 4650259.847577339038253 ], [ 573142.012282718089409, 5427937.52346492279321 ], [ -48348.561551727936603, 5454614.29100925847888 ], [ -121316.999176806421019, 4677069.07630961574614 ] ] ] } }
]
}
